1 45695U 20035AQ  22365.03103895  .00002883  00000-0  21236-3 0  9994
2 45695  53.0548 224.9773 0001494  79.2657 280.8500 15.06401583143615
1 45695U 20035AQ  22365.03103895  .00002883  00000-0  21236-3 0  9994
2 45695  53.0548 224.9773 0001494  79.2657 280.8500 15.06401583143200
1 45695U 20035AQ  23001.02624358  .00002922  00000-0  21494-3 0  9993
2 45695  53.0544 220.5096 0001457  77.0181 283.0970 15.06402161143358
1 45695U 20035AQ  23001.29163412  .00000726  00000-0  67641-4 0  9996
2 45695  53.0542 219.3181 0001449  75.9825 284.1325 15.06395581143803
1 45695U 20035AQ  23001.29163412  .00000726  00000-0  67641-4 0  9996
2 45695  53.0542 219.3181 0001449  75.9825 284.1325 15.06395581143397
1 45695U 20035AQ  23001.88875693 -.00001087  00000-0 -54093-4 0  9992
2 45695  53.0541 216.6374 0001451  76.1425 283.9725 15.06393802143892
1 45695U 20035AQ  23002.61857281  .00000771  00000-0  70625-4 0  9993
2 45695  53.0547 213.3612 0001363  76.3944 283.7197 15.06395041144009
1 45695U 20035AQ  23002.61857281  .00000771  00000-0  70625-4 0  9993
2 45695  53.0547 213.3612 0001363  76.3944 283.7197 15.06395041143592
1 45695U 20035AQ  23003.61377253  .00002478  00000-0  18521-3 0  9992
2 45695  53.0550 208.8937 0001287  78.1118 282.0015 15.06398176144159
1 45695U 20035AQ  23003.94550430  .00002271  00000-0  17128-3 0  9991
2 45695  53.0550 207.4045 0001294  77.3541 282.7592 15.06401992144207
1 45695U 20035AQ  23003.94550430  .00002271  00000-0  17128-3 0  9991
2 45695  53.0550 207.4045 0001294  77.3541 282.7592 15.06401992143790
1 45695U 20035AQ  23004.80801652  .00001152  00000-0  96213-4 0  9992
2 45695  53.0541 203.5321 0001345  76.9252 283.1887 15.06399841144337
1 45695U 20035AQ  23004.80801652  .00001152  00000-0  96213-4 0  9992
2 45695  53.0541 203.5321 0001345  76.9252 283.1887 15.06399841143921
1 45695U 20035AQ  23005.53783187  .00000091  00000-0  25000-4 0  9992
2 45695  53.0550 200.2563 0001451  77.6478 282.4674 15.06399616144443
1 45695U 20035AQ  23005.80321607  .00000192  00000-0  31760-4 0  9999
2 45695  53.0550 199.0652 0001455  77.5702 282.5449 15.06402600144483
1 45695U 20035AQ  23006.40034369 -.00000201  00000-0  54280-5 0  9997
2 45695  53.0550 196.3852 0001432  76.3537 283.7612 15.06393591144161
1 45695U 20035AQ  23006.59938837 -.00000426  00000-0 -96997-5 0  9991
2 45695  53.0548 195.4913 0001452  77.0132 283.1019 15.06387655144605
1 45695U 20035AQ  23006.59938837 -.00000426  00000-0 -96997-5 0  9991
2 45695  53.0548 195.4913 0001452  77.0132 283.1019 15.06387655144199
1 45695U 20035AQ  23007.79362968  .00000368  00000-0  43630-4 0  9998
2 45695  53.0548 190.1301 0001439  77.8832 282.2319 15.06396111144787
1 45695U 20035AQ  23007.79362968  .00000368  00000-0  43630-4 0  9998
2 45695  53.0548 190.1301 0001439  77.8832 282.2319 15.06396111144372
1 45695U 20035AQ  23008.19170996  .00000574  00000-0  57458-4 0  9993
2 45695  53.0548 188.3430 0001423  76.6267 283.4880 15.06397477144840
1 45695U 20035AQ  23008.85517501  .00002187  00000-0  16568-3 0  9991
2 45695  53.0549 185.3647 0001392  77.7747 282.3398 15.06399799144940
1 45695U 20035AQ  23008.85517501  .00002187  00000-0  16568-3 0  9991
2 45695  53.0549 185.3647 0001392  77.7747 282.3398 15.06399799144535
1 45695U 20035AQ  23009.18690827  .00001940  00000-0  14910-3 0  9996
2 45695  53.0551 183.8755 0001380  76.7650 283.3492 15.06402031144990
1 45695U 20035AQ  23009.58499890  .00000151  00000-0  29050-4 0  9992
2 45695  53.0548 182.0884 0001418  77.4399 282.6748 15.06392584144649
1 45695U 20035AQ  23009.85038320  .00000451  00000-0  49178-4 0  9995
2 45695  53.0546 180.8970 0001429  76.8295 283.2853 15.06396972145098
1 45695U 20035AQ  23010.18211393  .00000860  00000-0  76648-4 0  9992
2 45695  53.0545 179.4079 0001451  77.4451 282.6700 15.06400893145145
1 45695U 20035AQ  23010.18211393  .00000860  00000-0  76648-4 0  9992
2 45695  53.0545 179.4079 0001451  77.4451 282.6700 15.06400893144739
1 45695U 20035AQ  23010.71287770  .00001565  00000-0  12388-3 0  9996
2 45695  53.0542 177.0254 0001440  77.7355 282.3795 15.06411631144811
1 45695U 20035AQ  23010.84557150  .00001296  00000-0  10584-3 0  9999
2 45695  53.0545 176.4295 0001377  77.7106 282.4037 15.06411811145243
1 45695U 20035AQ  23011.57540381  .00000132  00000-0  27765-4 0  9996
2 45695  53.0534 173.1539 0001833  65.5136 294.6044 15.06390913144949
1 45695U 20035AQ  23011.84079283 -.00000027  00000-0  17091-4 0  9999
2 45695  53.0514 171.9589 0002655  85.2226 274.9066 15.06391341145391
1 45695U 20035AQ  23012.76964951 -.00002267  00000-0 -13335-3 0  9991
2 45695  53.0537 167.7912 0001369  84.8975 275.2170 15.06395736145534
1 45695U 20035AQ  23012.76964951 -.00002267  00000-0 -13335-3 0  9991
2 45695  53.0537 167.7912 0001369  84.8975 275.2170 15.06395736145129
1 45695U 20035AQ  23013.56581264  .00000978  00000-0  84536-4 0  9999
2 45695  53.0537 164.2176 0001163  80.5940 279.5180 15.06391895145658
1 45695U 20035AQ  23013.76484889  .00001852  00000-0  14320-3 0  9991
2 45695  53.0537 163.3235 0001213  84.3081 275.8046 15.06397886145687
1 45695U 20035AQ  23013.76484889  .00001852  00000-0  14320-3 0  9991
2 45695  53.0537 163.3235 0001213  84.3081 275.8046 15.06397886145272
1 45695U 20035AQ  23014.42832730  .00001564  00000-0  12386-3 0  9997
2 45695  53.0532 160.3465 0001038  86.4947 273.6160 15.06389896145374
1 45695U 20035AQ  23014.82640352  .00002996  00000-0  21994-3 0  9993
2 45695  53.0518 158.5591 0001272  84.8946 275.2188 15.06402143145434
1 45695U 20035AQ  23015.09179522  .00000609  00000-0  59804-4 0  9990
2 45695  53.0518 157.3665 0001334  84.9625 275.1516 15.06393676145475
1 45695U 20035AQ  23015.62256991 -.00000054  00000-0  15249-4 0  9995
2 45695  53.0517 154.9834 0001377  81.5498 278.5647 15.06398071145963
1 45695U 20035AQ  23015.75525805  .00002430  00000-0  18193-3 0  9991
2 45695  53.0513 154.3895 0001335  90.1542 269.9600 15.06406893145987
1 45695U 20035AQ  23015.75525805  .00002430  00000-0  18193-3 0  9991
2 45695  53.0513 154.3895 0001335  90.1542 269.9600 15.06406893145572
1 45695U 20035AQ  23016.08699957  .00000836  00000-0  75038-4 0  9998
2 45695  53.0521 152.8992 0001538  90.7533 269.3632 15.06395347145629
1 45695U 20035AQ  23016.55142548  .00000313  00000-0  39900-4 0  9997
2 45695  53.0537 150.8146 0001321  90.2379 269.8762 15.06399820146101
1 45695U 20035AQ  23016.75046575  .00000715  00000-0  66894-4 0  9990
2 45695  53.0529 149.9203 0001419  92.1821 267.9330 15.06400671146136
1 45695U 20035AQ  23017.61298564  .00000266  00000-0  36769-4 0  9992
2 45695  53.0512 146.0511 0001586  81.5408 278.5760 15.06389891146265
1 45695U 20035AQ  23017.61298564  .00000266  00000-0  36769-4 0  9992
2 45695  53.0512 146.0511 0001586  81.5408 278.5760 15.06389891145859
1 45695U 20035AQ  23017.67933276 -.00001240  00000-0 -64403-4 0  9995
2 45695  53.0509 145.7530 0001424  80.5938 279.5211 15.06389560146272
1 45695U 20035AQ  23018.27645033  .00001733  00000-0  13523-3 0  9994
2 45695  53.0527 143.0722 0001526  85.0931 275.0232 15.06399299145950
1 45695U 20035AQ  23018.60817965  .00005751  00000-0  40455-3 0  9994
2 45695  53.0520 141.5802 0001361  94.0556 266.0589 15.06411048146419
1 45695U 20035AQ  23018.67452340  .00006286  00000-0  44031-3 0  9991
2 45695  53.0519 141.2826 0001350  91.9803 268.1341 15.06417567146421
1 45695U 20035AQ  23018.67452340  .00006286  00000-0  44031-3 0  9991
2 45695  53.0519 141.2826 0001350  91.9803 268.1341 15.06417567146016
1 45695U 20035AQ  23019.33800443  .00002064  00000-0  15743-3 0  9994
2 45695  53.0520 138.3063 0001257  79.7012 280.4119 15.06395449146520
1 45695U 20035AQ  23019.33800443  .00002064  00000-0  15743-3 0  9994
2 45695  53.0520 138.3063 0001257  79.7012 280.4119 15.06395449146115
1 45695U 20035AQ  23019.73608159  .00003412  00000-0  24784-3 0  9991
2 45695  53.0518 136.5162 0001314 101.5243 258.5893 15.06404302146176
1 45695U 20035AQ  23020.46589711  .00019867  00000-0  13485-2 0  9991
2 45695  53.0522 133.2413 0001407 104.3994 255.7151 15.06410437146690
1 45695U 20035AQ  23020.66493357  .00033585  00000-0  22608-2 0  9993
2 45695  53.0524 132.3488 0001168  91.8495 268.2628 15.06433648146310
1 45695U 20035AQ  23020.99666854  .00019067  00000-0  12947-2 0  9997
2 45695  53.0526 130.8592 0001807  79.2105 280.9088 15.06421137146365
1 45695U 20035AQ  23021.46109531  .00016439  00000-0  11198-2 0  9991
2 45695  53.0523 128.7737 0001090  74.3974 285.7135 15.06404322146434
1 45695U 20035AQ  23021.66013553  .00039344  00000-0  26442-2 0  9999
2 45695  53.0524 127.8807 0001148  67.4041 292.7069 15.06418171146469
1 45695U 20035AQ  23022.45629977  .00031544  00000-0  21260-2 0  9997
2 45695  53.0521 124.3067 0001052  79.3706 280.7402 15.06419648146581
1 45695U 20035AQ  23022.98707401  .00013482  00000-0  92205-3 0  9993
2 45695  53.0520 121.9239 0001209  91.2914 268.8214 15.06408398146669
1 45695U 20035AQ  23023.51785188  .00024003  00000-0  16248-2 0  9994
2 45695  53.0517 119.5409 0000997  98.7016 261.4086 15.06400453146744
1 45695U 20035AQ  23024.24767063  .00025181  00000-0  17029-2 0  9993
2 45695  53.0521 116.2645 0000744 106.3444 253.7627 15.06410058146855
1 45695U 20035AQ  23024.51305619  .00009229  00000-0  63755-3 0  9991
2 45695  53.0510 115.0735 0001091  98.9208 261.1905 15.06405709146893
1 45695U 20035AQ  23025.50826411  .00003663  00000-0  26469-3 0  9996
2 45695  53.0515 110.6061 0001167  87.9052 272.2071 15.06399039147458
1 45695U 20035AQ  23025.50826411  .00003663  00000-0  26469-3 0  9996
2 45695  53.0515 110.6061 0001167  87.9052 272.2071 15.06399039147043
1 45695U 20035AQ  23026.50346402  .00006017  00000-0  42239-3 0  9993
2 45695  53.0517 106.1363 0001376  90.6545 269.4601 15.06409061147606
1 45695U 20035AQ  23026.90154607  .00003848  00000-0  27706-3 0  9992
2 45695  53.0511 104.3503 0001348  89.3786 270.7357 15.06401892147255
1 45695U 20035AQ  23027.36597738 -.00000106  00000-0  11763-4 0  9991
2 45695  53.0515 102.2652 0001253 100.8399 259.2731 15.06392381147738
1 45695U 20035AQ  23027.36597738 -.00000106  00000-0  11763-4 0  9991
2 45695  53.0515 102.2652 0001253 100.8399 259.2731 15.06392381147323
1 45695U 20035AQ  23027.89675065  .00000588  00000-0  58376-4 0  9993
2 45695  53.0516  99.8834 0001230  92.5141 267.5988 15.06397363147819
1 45695U 20035AQ  23028.56021801  .00000779  00000-0  71183-4 0  9994
2 45695  53.0518  96.9040 0001223  99.6475 260.4652 15.06400323147505
1 45695U 20035AQ  23028.89195157 -.00000049  00000-0  15595-4 0  9992
2 45695  53.0517  95.4151 0001168  85.7197 274.3925 15.06401650147967
1 45695U 20035AQ  23029.88715837  .00002354  00000-0  17688-3 0  9999
2 45695  53.0528  90.9464 0001161  84.7610 275.3511 15.06395709148115
1 45695U 20035AQ  23030.21889713  .00001206  00000-0  99851-4 0  9991
2 45695  53.0528  89.4573 0001164  89.5509 270.5614 15.06391253147752
1 45695U 20035AQ  23030.41793453  .00000724  00000-0  67462-4 0  9995
2 45695  53.0528  88.5636 0001086  87.0417 273.0696 15.06396894148199
1 45695U 20035AQ  23030.88236060  .00000177  00000-0  30784-4 0  9991
2 45695  53.0528  86.4784 0001176  89.3585 270.7539 15.06399930148263
1 45695U 20035AQ  23031.28044269  .00000737  00000-0  68375-4 0  9993
2 45695  53.0528  84.6916 0001273  87.0888 273.0247 15.06398249148320
1 45695U 20035AQ  23031.28044269  .00000737  00000-0  68375-4 0  9993
2 45695  53.0528  84.6916 0001273  87.0888 273.0247 15.06398249147914
